OBJECT_NAME,OBJECT_ID,EPOCH,MEAN_MOTION,ECCENTRICITY,INCLINATION,RA_OF_ASC_NODE,ARG_OF_PERICENTER,MEAN_ANOMALY,EPHEMERIS_TYPE,CLASSIFICATION_TYPE,NORAD_CAT_ID,ELEMENT_SET_NO,REV_AT_EPOCH,BSTAR,MEAN_MOTION_DOT,MEAN_MOTION_DDOT
STARLINK-34909,2025-191Y,2026-07-04T01:47:46.864608,15.05664363,.00023504,97.2846,54.6458,82.5258,277.6237,0,U,65401,999,4779,.36721085E-3,.5248E-4,0
STARLINK-34848,2025-191Z,2026-07-04T01:39:48.576672,15.05667075,.00023247,97.2867,54.6549,63.3323,296.8142,0,U,65402,999,4778,.54096706E-3,.7761E-4,0
STARLINK-35031,2025-192A,2026-07-04T01:59:12.528096,15.34435326,.00011011,53.1575,60.3201,66.0779,294.0339,0,U,65404,999,4708,.1289882E-2,.43507E-3,0
STARLINK-34830,2025-192B,2026-07-04T00:25:21.389088,15.31737305,.00012783,53.1597,51.3765,79.6185,280.4960,0,U,65405,999,4721,.10571054E-2,.3262E-3,0
STARLINK-35036,2025-192C,2026-07-04T00:26:32.300160,15.30215352,.00015207,53.1604,52.0936,62.4473,297.6682,0,U,65406,999,4719,.77121247E-3,.22562E-3,0
STARLINK-35035,2025-192D,2026-07-04T05:04:08.124960,15.30197595,.0001377,53.1607,51.1614,75.5157,284.5997,0,U,65407,999,4723,.10991721E-2,.32334E-3,0
STARLINK-35008,2025-192E,2026-07-02T23:12:34.126560,15.30202646,.00013397,53.1594,56.9050,75.0235,285.0914,0,U,65408,999,4703,.92668381E-3,.27189E-3,0
STARLINK-35022,2025-192F,2026-07-03T23:58:57.895680,15.31734703,.00011441,53.1574,51.2633,107.8546,252.2580,0,U,65409,999,4720,.11229441E-2,.34681E-3,0
STARLINK-35024,2025-192G,2026-07-04T00:05:40.862688,15.31736351,.0001117,53.1594,51.2926,97.8866,262.2262,0,U,65410,999,4720,.10630411E-2,.32805E-3,0
STARLINK-34983,2025-192H,2026-07-03T22:10:35.632128,15.31724881,.00011135,53.1585,51.5043,74.9527,285.1598,0,U,65411,999,4719,.10574517E-2,.32618E-3,0
STARLINK-34992,2025-192J,2026-07-03T22:17:19.209984,15.31725409,.00009436,53.1574,51.5313,71.2305,288.8799,0,U,65412,999,4717,.10612365E-2,.32737E-3,0
STARLINK-35003,2025-192K,2026-07-04T06:00:02.999808,15.33583950,.00014518,53.1601,51.1787,75.4828,35.7149,0,U,65413,999,581,-.57559279E-3,-.19276E-3,0
STARLINK-34238,2025-192M,2026-07-04T00:52:21.895392,15.30227356,.00011386,53.1597,52.1968,100.7362,259.3767,0,U,65415,999,4719,.11451483E-2,.3374E-3,0
STARLINK-34855,2025-192N,2026-07-03T21:37:44.135328,15.31734291,.00011504,53.1607,52.7778,65.1757,294.9364,0,U,65416,999,4717,.10644739E-2,.32848E-3,0
STARLINK-34255,2025-192P,2026-07-04T00:43:15.716064,15.30254696,.00007966,53.1607,52.1561,123.1946,236.9131,0,U,65417,999,4719,.19222459E-2,.57107E-3,0
STARLINK-34997,2025-192Q,2026-07-04T00:18:56.545344,15.30213995,.00014294,53.1612,52.0582,89.6951,270.4214,0,U,65418,999,4719,.91645388E-3,.26894E-3,0
STARLINK-35085,2025-192R,2026-07-03T21:36:59.192640,15.31734074,.00009406,53.1592,51.3659,104.5272,255.5834,0,U,65419,999,4719,.1104074E-2,.34089E-3,0
STARLINK-35138,2025-192S,2026-07-04T00:12:24.340320,15.31737635,.00009946,53.1597,51.3268,58.9212,301.1887,0,U,65420,999,4720,.10941384E-2,.33781E-3,0
STARLINK-35146,2025-192T,2026-07-04T00:19:07.435200,15.31737838,.00012033,53.1591,51.3477,66.5357,293.5770,0,U,65421,999,4719,.11574377E-2,.35766E-3,0
STARLINK-35074,2025-192U,2026-07-03T14:59:11.201280,15.30212145,.00015959,53.1611,53.8913,53.9033,306.2116,0,U,65422,999,4713,.12416583E-2,.3661E-3,0
STARLINK-34837,2025-192V,2026-07-04T00:32:05.300448,15.31756379,.00006798,53.1589,51.4026,114.0970,246.0102,0,U,65423,999,4720,.14353449E-2,.4452E-3,0
STARLINK-34670,2025-192W,2026-07-04T00:05:11.458176,15.31729218,.00006785,53.1606,51.2843,112.5940,247.5133,0,U,65424,999,4720,.8577626E-3,.26371E-3,0
STARLINK-35095,2025-192X,2026-07-04T01:06:10.772064,15.31734920,.00010241,53.1580,51.5472,69.2335,290.8777,0,U,65425,999,4720,.12806084E-2,.39628E-3,0
STARLINK-34883,2025-192Y,2026-07-04T04:00:09.257184,15.31747269,.00010485,53.1608,50.8782,62.5150,297.5958,0,U,65426,999,4721,.10801055E-2,.33351E-3,0
STARLINK-34916,2025-192Z,2026-07-04T00:58:57.905472,15.31736057,.0000942,53.1599,51.5170,58.6318,301.4776,0,U,65427,999,4720,.12259891E-2,.37915E-3,0
STARLINK-35004,2025-192AA,2026-07-04T00:47:48.397920,15.30229608,.00011379,53.1597,52.1721,102.8896,257.2232,0,U,65428,999,4719,.12154285E-2,.35845E-3,0
STARLINK-35014,2025-192AB,2026-07-03T21:47:18.767040,15.30216926,.00010848,53.1599,52.8140,62.7415,297.3697,0,U,65429,999,4717,.11648444E-2,.34318E-3,0
STARLINK-35025,2025-192AC,2026-07-04T00:34:24.413088,15.34428834,.00011319,53.1595,50.7031,69.3048,290.8076,0,U,65430,999,4721,.12290521E-2,.41417E-3,0
STARLINK-35034,2025-192AD,2026-07-04T00:40:12.560160,15.30232196,.0000832,53.1605,52.1403,97.2586,262.8509,0,U,65431,999,4719,.12744621E-2,.37616E-3,0
STARLINK-35142,2025-194A,2026-07-03T20:35:02.264640,15.05662040,.00025584,97.2850,37.2000,87.9546,272.1974,0,U,65434,999,4712,.31767327E-3,.4532E-4,0
