STARLINK-34909          
1 65401U 25191Y   26185.07484797  .00005248  00000+0  36721-3 0  9992
2 65401  97.2846  54.6458 0002350  82.5258 277.6237 15.05664363 47796
STARLINK-34848          
1 65402U 25191Z   26185.06931223  .00007761  00000+0  54097-3 0  9991
2 65402  97.2867  54.6549 0002324  63.3323 296.8142 15.05667075 47782
STARLINK-35031          
1 65404U 25192A   26185.08278389  .00043507  00000+0  12899-2 0  9994
2 65404  53.1575  60.3201 0001101  66.0779 294.0339 15.34435326 47082
STARLINK-34830          
1 65405U 25192B   26185.01760867  .00032620  00000+0  10571-2 0  9994
2 65405  53.1597  51.3765 0001278  79.6185 280.4960 15.31737305 47211
STARLINK-35036          
1 65406U 25192C   26185.01842940  .00022562  00000+0  77121-3 0  9997
2 65406  53.1604  52.0936 0001520  62.4473 297.6682 15.30215352 47199
STARLINK-35035          
1 65407U 25192D   26185.21120515  .00032334  00000+0  10992-2 0  9997
2 65407  53.1607  51.1614 0001377  75.5157 284.5997 15.30197595 47237
STARLINK-35008          
1 65408U 25192E   26183.96706165  .00027189  00000+0  92668-3 0  9992
2 65408  53.1594  56.9050 0001339  75.0235 285.0914 15.30202646 47037
STARLINK-35022          
1 65409U 25192F   26184.99928120  .00034681  00000+0  11229-2 0  9992
2 65409  53.1574  51.2633 0001144 107.8546 252.2580 15.31734703 47203
STARLINK-35024          
1 65410U 25192G   26185.00394517  .00032805  00000+0  10630-2 0  9995
2 65410  53.1594  51.2926 0001117  97.8866 262.2262 15.31736351 47204
STARLINK-34983          
1 65411U 25192H   26184.92402352  .00032618  00000+0  10575-2 0  9993
2 65411  53.1585  51.5043 0001113  74.9527 285.1598 15.31724881 47193
STARLINK-34992          
1 65412U 25192J   26184.92869456  .00032737  00000+0  10612-2 0  9990
2 65412  53.1574  51.5313 0000943  71.2305 288.8799 15.31725409 47174
STARLINK-35003          
1 65413U 25192K   26185.25003472 -.00019276  00000+0 -57559-3 0  9993
2 65413  53.1601  51.1787 0001451  75.4828  35.7149 15.33583950  5816
STARLINK-34238          
1 65415U 25192M   26185.03636453  .00033740  00000+0  11451-2 0  9992
2 65415  53.1597  52.1968 0001138 100.7362 259.3767 15.30227356 47190
STARLINK-34855          
1 65416U 25192N   26184.90120527  .00032848  00000+0  10645-2 0  9990
2 65416  53.1607  52.7778 0001150  65.1757 294.9364 15.31734291 47172
STARLINK-34255          
1 65417U 25192P   26185.03004301  .00057107  00000+0  19222-2 0  9992
2 65417  53.1607  52.1561 0000796 123.1946 236.9131 15.30254696 47192
STARLINK-34997          
1 65418U 25192Q   26185.01315446  .00026894  00000+0  91645-3 0  9995
2 65418  53.1612  52.0582 0001429  89.6951 270.4214 15.30213995 47199
STARLINK-35085          
1 65419U 25192R   26184.90068510  .00034089  00000+0  11041-2 0  9996
2 65419  53.1592  51.3659 0000940 104.5272 255.5834 15.31734074 47193
STARLINK-35138          
1 65420U 25192S   26185.00861505  .00033781  00000+0  10941-2 0  9991
2 65420  53.1597  51.3268 0000994  58.9212 301.1887 15.31737635 47205
STARLINK-35146          
1 65421U 25192T   26185.01328050  .00035766  00000+0  11574-2 0  9994
2 65421  53.1591  51.3477 0001203  66.5357 293.5770 15.31737838 47199
STARLINK-35074          
1 65422U 25192U   26184.62443520  .00036610  00000+0  12417-2 0  9997
2 65422  53.1611  53.8913 0001595  53.9033 306.2116 15.30212145 47138
STARLINK-34837          
1 65423U 25192V   26185.02228357  .00044520  00000+0  14353-2 0  9992
2 65423  53.1589  51.4026 0000679 114.0970 246.0102 15.31756379 47200
STARLINK-34670          
1 65424U 25192W   26185.00360484  .00026371  00000+0  85776-3 0  9991
2 65424  53.1606  51.2843 0000678 112.5940 247.5133 15.31729218 47207
STARLINK-35095          
1 65425U 25192X   26185.04595801  .00039628  00000+0  12806-2 0  9991
2 65425  53.1580  51.5472 0001024  69.2335 290.8777 15.31734920 47203
STARLINK-34883          
1 65426U 25192Y   26185.16677381  .00033351  00000+0  10801-2 0  9999
2 65426  53.1608  50.8782 0001048  62.5150 297.5958 15.31747269 47214
STARLINK-34916          
1 65427U 25192Z   26185.04094798  .00037915  00000+0  12260-2 0  9993
2 65427  53.1599  51.5170 0000942  58.6318 301.4776 15.31736057 47202
STARLINK-35004          
1 65428U 25192AA  26185.03319905  .00035845  00000+0  12154-2 0  9995
2 65428  53.1597  52.1721 0001137 102.8896 257.2232 15.30229608 47191
STARLINK-35014          
1 65429U 25192AB  26184.90785610  .00034318  00000+0  11648-2 0  9992
2 65429  53.1599  52.8140 0001084  62.7415 297.3697 15.30216926 47175
STARLINK-35025          
1 65430U 25192AC  26185.02389367  .00041417  00000+0  12291-2 0  9990
2 65430  53.1595  50.7031 0001131  69.3048 290.8076 15.34428834 47218
STARLINK-35034          
1 65431U 25192AD  26185.02792315  .00037616  00000+0  12745-2 0  9992
2 65431  53.1605  52.1403 0000832  97.2586 262.8509 15.30232196 47191
STARLINK-35142          
1 65434U 25194A   26184.85766510  .00004532  00000+0  31767-3 0  9992
2 65434  97.2850  37.2000 0002558  87.9546 272.1974 15.05662040 47121
